; Bible G-Code - Text Layer
G21 ; mm
G90 ; absolute
M82 ; absolute extruder
; GEN 1:1
G1 Z0.2 F1200
G1 X10 Y10 F3000
G1 X64 Y10 E1.0
; GEN 1:2
G1 Z0.2 F1200
G1 X10 Y10 F3000
G1 X152 Y10 E1.0
; GEN 1:3
G1 Z0.2 F1200
G1 X10 Y10 F3000
G1 X64 Y10 E1.0
; GEN 1:4
G1 Z0.2 F1200
G1 X10 Y10 F3000
G1 X95 Y10 E1.0
; GEN 1:5
G1 Z0.2 F1200
G1 X10 Y10 F3000
G1 X125 Y10 E1.0
; GEN 1:6
G1 Z0.2 F1200
G1 X10 Y10 F3000
G1 X122 Y10 E1.0
; GEN 1:7
G1 Z0.2 F1200
G1 X10 Y10 F3000
G1 X154 Y10 E1.0
; GEN 1:8
G1 Z0.2 F1200
G1 X10 Y10 F3000
G1 X99 Y10 E1.0
; GEN 1:9
G1 Z0.2 F1200
G1 X10 Y10 F3000
G1 X136 Y10 E1.0
; GEN 1:10
G1 Z0.2 F1200
G1 X10 Y10 F3000
G1 X131 Y10 E1.0
; GEN 1:11
G1 Z0.2 F1200
G1 X10 Y10 F3000
G1 X186 Y10 E1.0
; GEN 1:12
G1 Z0.2 F1200
G1 X10 Y10 F3000
G1 X184 Y10 E1.0
; GEN 1:13
G1 Z0.2 F1200
G1 X10 Y10 F3000
G1 X61 Y10 E1.0
; GEN 1:14
G1 Z0.2 F1200
G1 X10 Y10 F3000
G1 X177 Y10 E1.0
; GEN 1:15
G1 Z0.2 F1200
G1 X10 Y10 F3000
G1 X112 Y10 E1.0
; GEN 1:16
G1 Z0.2 F1200
G1 X10 Y10 F3000
G1 X139 Y10 E1.0
; GEN 1:17
G1 Z0.2 F1200
G1 X10 Y10 F3000
G1 X87 Y10 E1.0
; GEN 1:18
G1 Z0.2 F1200
G1 X10 Y10 F3000
G1 X127 Y10 E1.0
; GEN 1:19
G1 Z0.2 F1200
G1 X10 Y10 F3000
G1 X62 Y10 E1.0
; GEN 1:20
G1 Z0.2 F1200
G1 X10 Y10 F3000
G1 X168 Y10 E1.0
; GEN 1:21
G1 Z0.2 F1200
G1 X10 Y10 F3000
G1 X207 Y10 E1.0
; GEN 1:22
G1 Z0.2 F1200
G1 X10 Y10 F3000
G1 X135 Y10 E1.0
; GEN 1:23
G1 Z0.2 F1200
G1 X10 Y10 F3000
G1 X61 Y10 E1.0
; GEN 1:24
G1 Z0.2 F1200
G1 X10 Y10 F3000
G1 X167 Y10 E1.0
; GEN 1:25
G1 Z0.2 F1200
G1 X10 Y10 F3000
G1 X181 Y10 E1.0
; GEN 1:26
G1 Z0.2 F1200
G1 X10 Y10 F3000
G1 X261 Y10 E1.0
; GEN 1:27
G1 Z0.2 F1200
G1 X10 Y10 F3000
G1 X115 Y10 E1.0
; GEN 1:28
G1 Z0.2 F1200
G1 X10 Y10 F3000
G1 X252 Y10 E1.0
; GEN 1:29
G1 Z0.2 F1200
G1 X10 Y10 F3000
G1 X210 Y10 E1.0
; GEN 1:30
G1 Z0.2 F1200
G1 X10 Y10 F3000
G1 X199 Y10 E1.0
; GEN 1:31
G1 Z0.2 F1200
G1 X10 Y10 F3000
G1 X134 Y10 E1.0
; GEN 2:1
G1 Z0.2 F1200
G1 X10 Y10 F3000
G1 X81 Y10 E1.0
; GEN 2:2
G1 Z0.2 F1200
G1 X10 Y10 F3000
G1 X140 Y10 E1.0
; GEN 2:3
G1 Z0.2 F1200
G1 X10 Y10 F3000
G1 X140 Y10 E1.0
; GEN 2:4
G1 Z0.2 F1200
G1 X10 Y10 F3000
G1 X152 Y10 E1.0
; GEN 2:5
G1 Z0.2 F1200
G1 X10 Y10 F3000
G1 X213 Y10 E1.0
; GEN 2:6
G1 Z0.2 F1200
G1 X10 Y10 F3000
G1 X92 Y10 E1.0
; GEN 2:7
G1 Z0.2 F1200
G1 X10 Y10 F3000
G1 X145 Y10 E1.0
; GEN 2:8
G1 Z0.2 F1200
G1 X10 Y10 F3000
G1 X106 Y10 E1.0
; GEN 2:9
G1 Z0.2 F1200
G1 X10 Y10 F3000
G1 X212 Y10 E1.0
; GEN 2:10
G1 Z0.2 F1200
G1 X10 Y10 F3000
G1 X118 Y10 E1.0
; GEN 2:11
G1 Z0.2 F1200
G1 X10 Y10 F3000
G1 X117 Y10 E1.0
; GEN 2:12
G1 Z0.2 F1200
G1 X10 Y10 F3000
G1 X82 Y10 E1.0
; GEN 2:13
G1 Z0.2 F1200
G1 X10 Y10 F3000
G1 X111 Y10 E1.0
; GEN 2:14
G1 Z0.2 F1200
G1 X10 Y10 F3000
G1 X140 Y10 E1.0
; GEN 2:15
G1 Z0.2 F1200
G1 X10 Y10 F3000
G1 X104 Y10 E1.0
; GEN 2:16
G1 Z0.2 F1200
G1 X10 Y10 F3000
G1 X105 Y10 E1.0
; GEN 2:17
G1 Z0.2 F1200
G1 X10 Y10 F3000
G1 X149 Y10 E1.0
; GEN 2:18
G1 Z0.2 F1200
G1 X10 Y10 F3000
G1 X115 Y10 E1.0
; GEN 2:19
G1 Z0.2 F1200
G1 X10 Y10 F3000
G1 X240 Y10 E1.0
; GEN 2:20
G1 Z0.2 F1200
G1 X10 Y10 F3000
G1 X160 Y10 E1.0
; GEN 2:21
G1 Z0.2 F1200
G1 X10 Y10 F3000
G1 X149 Y10 E1.0
; GEN 2:22
G1 Z0.2 F1200
G1 X10 Y10 F3000
G1 X108 Y10 E1.0
; GEN 2:23
G1 Z0.2 F1200
G1 X10 Y10 F3000
G1 X138 Y10 E1.0
; GEN 2:24
G1 Z0.2 F1200
G1 X10 Y10 F3000
G1 X125 Y10 E1.0
; GEN 2:25
G1 Z0.2 F1200
G1 X10 Y10 F3000
G1 X79 Y10 E1.0
; GEN 3:1
G1 Z0.2 F1200
G1 X10 Y10 F3000
G1 X192 Y10 E1.0
; GEN 3:2
G1 Z0.2 F1200
G1 X10 Y10 F3000
G1 X98 Y10 E1.0
; GEN 3:3
G1 Z0.2 F1200
G1 X10 Y10 F3000
G1 X154 Y10 E1.0
; GEN 3:4
G1 Z0.2 F1200
G1 X10 Y10 F3000
G1 X71 Y10 E1.0
; GEN 3:5
G1 Z0.2 F1200
G1 X10 Y10 F3000
G1 X139 Y10 E1.0
; GEN 3:6
G1 Z0.2 F1200
G1 X10 Y10 F3000
G1 X247 Y10 E1.0
; GEN 3:7
G1 Z0.2 F1200
G1 X10 Y10 F3000
G1 X148 Y10 E1.0
; GEN 3:8
G1 Z0.2 F1200
G1 X10 Y10 F3000
G1 X200 Y10 E1.0
; GEN 3:9
G1 Z0.2 F1200
G1 X10 Y10 F3000
G1 X79 Y10 E1.0
; GEN 3:10
G1 Z0.2 F1200
G1 X10 Y10 F3000
G1 X112 Y10 E1.0
; GEN 3:11
G1 Z0.2 F1200
G1 X10 Y10 F3000
G1 X141 Y10 E1.0
; GEN 3:12
G1 Z0.2 F1200
G1 X10 Y10 F3000
G1 X109 Y10 E1.0
; GEN 3:13
G1 Z0.2 F1200
G1 X10 Y10 F3000
G1 X141 Y10 E1.0
; GEN 3:14
G1 Z0.2 F1200
G1 X10 Y10 F3000
G1 X228 Y10 E1.0
; GEN 3:15
G1 Z0.2 F1200
G1 X10 Y10 F3000
G1 X152 Y10 E1.0
; GEN 3:16
G1 Z0.2 F1200
G1 X10 Y10 F3000
G1 X200 Y10 E1.0
; GEN 3:17
G1 Z0.2 F1200
G1 X10 Y10 F3000
G1 X269 Y10 E1.0
; GEN 3:18
G1 Z0.2 F1200
G1 X10 Y10 F3000
G1 X106 Y10 E1.0
; GEN 3:19
G1 Z0.2 F1200
G1 X10 Y10 F3000
G1 X173 Y10 E1.0
; GEN 3:20
G1 Z0.2 F1200
G1 X10 Y10 F3000
G1 X88 Y10 E1.0
; GEN 3:21
G1 Z0.2 F1200
G1 X10 Y10 F3000
G1 X96 Y10 E1.0
; GEN 3:22
G1 Z0.2 F1200
G1 X10 Y10 F3000
G1 X195 Y10 E1.0
; GEN 3:23
G1 Z0.2 F1200
G1 X10 Y10 F3000
G1 X117 Y10 E1.0
; GEN 3:24
G1 Z0.2 F1200
G1 X10 Y10 F3000
G1 X174 Y10 E1.0
; GEN 4:1
G1 Z0.2 F1200
G1 X10 Y10 F3000
G1 X116 Y10 E1.0
; GEN 4:2
G1 Z0.2 F1200
G1 X10 Y10 F3000
G1 X115 Y10 E1.0
; GEN 4:3
G1 Z0.2 F1200
G1 X10 Y10 F3000
G1 X121 Y10 E1.0
; GEN 4:4
G1 Z0.2 F1200
G1 X10 Y10 F3000
G1 X146 Y10 E1.0
; GEN 4:5
G1 Z0.2 F1200
G1 X10 Y10 F3000
G1 X114 Y10 E1.0
; GEN 4:6
G1 Z0.2 F1200
G1 X10 Y10 F3000
G1 X93 Y10 E1.0
; GEN 4:7
G1 Z0.2 F1200
G1 X10 Y10 F3000
G1 X173 Y10 E1.0
; GEN 4:8
G1 Z0.2 F1200
G1 X10 Y10 F3000
G1 X156 Y10 E1.0
; GEN 4:9
G1 Z0.2 F1200
G1 X10 Y10 F3000
G1 X116 Y10 E1.0
; GEN 4:10
G1 Z0.2 F1200
G1 X10 Y10 F3000
G1 X108 Y10 E1.0
; GEN 4:11
G1 Z0.2 F1200
G1 X10 Y10 F3000
G1 X123 Y10 E1.0
; GEN 4:12
G1 Z0.2 F1200
G1 X10 Y10 F3000
G1 X147 Y10 E1.0
; GEN 4:13
G1 Z0.2 F1200
G1 X10 Y10 F3000
G1 X80 Y10 E1.0
; GEN 4:14
G1 Z0.2 F1200
G1 X10 Y10 F3000
G1 X240 Y10 E1.0
; GEN 4:15
G1 Z0.2 F1200
G1 X10 Y10 F3000
G1 X187 Y10 E1.0
; GEN 4:16
G1 Z0.2 F1200
G1 X10 Y10 F3000
G1 X109 Y10 E1.0
; GEN 4:17
G1 Z0.2 F1200
G1 X10 Y10 F3000
G1 X158 Y10 E1.0
; GEN 4:18
G1 Z0.2 F1200
G1 X10 Y10 F3000
G1 X122 Y10 E1.0
; GEN 4:19
G1 Z0.2 F1200
G1 X10 Y10 F3000
G1 X109 Y10 E1.0
; GEN 4:20
G1 Z0.2 F1200
G1 X10 Y10 F3000
G1 X103 Y10 E1.0
G0 Z5 ; move up
M104 S0 ; turn off heater
M140 S0 ; turn off bed
M84 ; disable motors
